GPS BIIA-23 (PRN 18)    
1 22877U 93068A   19181.30554175 -.00000053  00000-0  00000+0 0  9990
2 22877  54.6942  68.0199 0152979  80.2475 101.7060  2.00561686188130
GPS BIIR-2  (PRN 13)    
1 24876U 97035A   19180.94836610  .00000112  00000-0  00000+0 0  9990
2 24876  55.4608 197.9677 0033089  71.0644 289.3551  2.00564451160724
GPS BIIR-3  (PRN 11)    
1 25933U 99055A   19181.26465223 -.00000061  00000-0  00000+0 0  9997
2 25933  52.1316  45.2647 0165051 109.3047  45.3707  2.00558732144559
GPS BIIR-4  (PRN 20)    
1 26360U 00025A   19181.70578566 -.00000000  00000-0  00000+0 0  9998
2 26360  53.3443 123.8754 0043636 138.6446  21.5046  2.00560533140259
GPS BIIR-5  (PRN 28)    
1 26407U 00040A   19181.02048413 -.00000056  00000-0  00000+0 0  9996
2 26407  56.2505 316.0873 0192297 275.9615  82.4054  2.00560425138916
GPS BIIR-6  (PRN 14)    
1 26605U 00071A   19181.29726479  .00000110  00000-0  00000+0 0  9994
2 26605  55.0355 195.3964 0109679 249.6103 220.5790  2.00558399136510
GPS BIIR-8  (PRN 16)    
1 27663U 03005A   19181.39817019 -.00000054  00000-0  00000+0 0  9999
2 27663  56.3100 315.8464 0106440  32.3831   1.1811  2.00572959120281
GPS BIIR-9  (PRN 21)    
1 27704U 03010A   19180.84163253 -.00000056  00000-0  00000+0 0  9996
2 27704  54.3693  67.5044 0247689 277.9239  35.8827  2.00559086119079
GPS BIIR-10 (PRN 22)    
1 28129U 03058A   19181.14302837  .00000006  00000-0  00000+0 0  9991
2 28129  53.1562 126.6812 0073838 283.8155  75.3317  2.00551757113770
GPS BIIR-11 (PRN 19)    
1 28190U 04009A   19180.64784865 -.00000053  00000-0  00000+0 0  9998
2 28190  56.2701  16.6497 0093853  82.2165 282.3296  2.00568104111942
GPS BIIR-12 (PRN 23)    
1 28361U 04023A   19181.48536066  .00000104  00000-0  00000+0 0  9991
2 28361  54.0516 189.7427 0135016 232.0036 292.3586  2.00576294110049
GPS BIIR-13 (PRN 02)    
1 28474U 04045A   19181.71968516 -.00000052  00000-0  00000+0 0  9998
2 28474  54.7268  67.2246 0191286 260.9311  71.0957  2.00556171107414
GPS BIIRM-1 (PRN 17)    
1 28874U 05038A   19180.86347894 -.00000053  00000-0  00000+0 0  9991
2 28874  56.3923  13.9952 0130629 262.0933 276.4238  2.00553888100792
GPS BIIRM-2 (PRN 31)    
1 29486U 06042A   19181.38207196  .00000041  00000-0  00000+0 0  9991
2 29486  54.9917 252.5129 0092036 359.0087 118.9923  2.00567495 93524
GPS BIIRM-3 (PRN 12)    
1 29601U 06052A   19181.16614196 -.00000054  00000-0  00000+0 0  9994
2 29601  56.2908 314.7723 0073837  62.1317 298.6096  2.00570155 92438
GPS BIIRM-4 (PRN 15)    
1 32260U 07047A   19181.47851410  .00000100  00000-0  00000+0 0  9991
2 32260  53.1750 185.4201 0112502  44.0019 316.9227  2.00558502 85815
GPS BIIRM-5 (PRN 29)    
1 32384U 07062A   19181.24308233 -.00000052  00000-0  00000+0 0  9997
2 32384  56.4772  14.6215 0009525 105.8386 219.1029  2.00557180 84547
GPS BIIRM-6 (PRN 07)    
1 32711U 08012A   19181.38586759  .00000043  00000-0  00000+0 0  9992
2 32711  54.7319 251.6994 0130879 220.2246 138.8817  2.00555237 82743
GPS BIIRM-8 (PRN 05)    
1 35752U 09043A   19180.62247939  .00000015  00000-0  00000+0 0  9994
2 35752  54.4361 129.3945 0055814  39.7785 154.5848  2.00558302 72304
GPS BIIF-1  (PRN 25)    
1 36585U 10022A   19181.45465053 -.00000052  00000-0  00000+0 0  9991
2 36585  55.5694 311.0515 0082342  50.8292 126.7972  2.00561358 66561
GPS BIIF-2  (PRN 01)    
1 37753U 11036A   19181.33347420 -.00000050  00000-0  00000+0 0  9997
2 37753  55.9239  71.2186 0088347  40.4974 137.7048  2.00566481 58244
GPS BIIF-3  (PRN 24)    
1 38833U 12053A   19181.07509139  .00000047  00000-0  00000+0 0  9990
2 38833  53.7678 247.9007 0082258  33.2837 327.3148  2.00558795 49308
GPS BIIF-4  (PRN 27)    
1 39166U 13023A   19180.93335934 -.00000054  00000-0  00000+0 0  9991
2 39166  56.0735  10.7627 0070467  27.4940 332.9207  2.00567315 44841
GPS BIIF-5  (PRN 30)    
1 39533U 14008A   19179.43235335  .00000019  00000-0  00000+0 0  9990
2 39533  53.8985 253.3652 0041657 194.0621 165.8915  2.00549855 39178
GPS BIIF-6  (PRN 06)    
1 39741U 14026A   19181.21202246 -.00000051  00000-0  00000+0 0  9992
2 39741  55.9034  70.7491 0016692 294.9388  64.9341  2.00571432 37491
GPS BIIF-7  (PRN 09)    
1 40105U 14045A   19181.30470882  .00000107  00000-0  00000+0 0  9993
2 40105  54.5780 190.0621 0009750 101.8859 258.2682  2.00566257 35940
GPS BIIF-8  (PRN 03)    
1 40294U 14068A   19181.17283611  .00000016  00000-0  00000+0 0  9993
2 40294  55.1882 130.9368 0021692  30.7372 329.3557  2.00553270 34164
GPS BIIF-9  (PRN 26)    
1 40534U 15013A   19181.31209226 -.00000053  00000-0  00000+0 0  9999
2 40534  54.4964 309.3851 0036995   6.0107 354.0323  2.00568854 31232
GPS BIIF-10  (PRN 08)   
1 40730U 15033A   19180.97612224 -.00000055  00000-0  00000+0 0  9998
2 40730  55.5978  10.0952 0044520 345.2124  14.6990  2.00553802 28989
GPS BIIF-11  (PRN 10)   
1 41019U 15062A   19181.02222894  .00000016  00000-0  00000+0 0  9994
2 41019  55.1890 130.7585 0047266 207.9038 151.8103  2.00564644 26804
GPS BIIF-12  (PRN 32)   
1 41328U 16007A   19181.11616033  .00000108  00000-0  00000+0 0  9991
2 41328  54.8212 190.4625 0033144 220.9128 138.8840  2.00571797 24868
